STARLINK-30140          
1 57458U 23107B   25304.47552067  .00003207  00000+0  25240-3 0  9999
2 57458  43.0042 321.3057 0001067 281.0375  79.0347 15.02527293125672
STARLINK-30185          
1 57459U 23107C   25304.83336806  .00052230  00000+0  30244-2 0  9990
2 57459  43.0006 319.0370 0001803 255.4935  20.3434 15.11468164  5821
STARLINK-30077          
1 57460U 23107D   25304.73479310 -.00000472  00000+0 -19885-4 0  9992
2 57460  42.9994 319.8101 0000418 299.5969  60.4832 15.02504950125716
STARLINK-30229          
1 57461U 23107E   25304.74810102 -.00001194  00000+0 -73304-4 0  9990
2 57461  43.0062 319.9059 0001429 276.3239  83.7441 15.02542440125714
STARLINK-30088          
1 57462U 23107F   25304.73143433  .00000716  00000+0  68059-4 0  9994
2 57462  43.0042 319.7791 0001385 276.8343  83.2341 15.02541260125719
STARLINK-30091          
1 57463U 23107G   25302.79692860  .00000651  00000+0  63235-4 0  9991
2 57463  43.0045 330.2098 0000973 279.1092  80.9640 15.02537031125425
STARLINK-30116          
1 57465U 23107J   25302.79803631 -.00000122  00000+0  60624-5 0  9997
2 57465  43.0050 330.2175 0001148 266.7002  93.3709 15.02542928125422
STARLINK-30092          
1 57467U 23107L   25302.79026485  .00000983  00000+0  87797-4 0  9996
2 57467  43.0041 330.1575 0001058 261.8256  98.2467 15.02541092125420
STARLINK-30039          
1 57468U 23107M   25302.52102644  .00000462  00000+0  49249-4 0  9992
2 57468  43.0058 331.5774 0001286 267.5168  92.5527 15.02537244125386
STARLINK-30171          
1 57469U 23107N   25304.77460847  .00000303  00000+0  37536-4 0  9994
2 57469  43.0053 319.2482 0001365 270.5408  89.5278 15.02538912125720
STARLINK-30186          
1 57470U 23107P   25302.78360711  .00000544  00000+0  55327-4 0  9999
2 57470  43.0030 330.1091 0001297 277.4499  82.6196 15.02538535125426
STARLINK-30190          
1 57471U 23107Q   25304.83336806  .01034325  00000+0  80407-2 0  9996
2 57471  42.9773 263.8265 0033370 151.2058 273.2194 15.67758232  5962
STARLINK-30204          
1 57472U 23107R   25303.50820975  .00000137  00000+0  25187-4 0  9994
2 57472  43.0033 326.0815 0000623 278.8416  81.2356 15.02532275125535
STARLINK-30187          
1 57473U 23107S   25304.03669924  .00001227  00000+0  10589-3 0  9999
2 57473  43.0046 323.1589 0001147 268.0972  91.9739 15.02541507125616
STARLINK-30110          
1 57474U 23107T   25304.83336806  .00266083  00000+0  60218-2 0  9994
2 57474  42.9940 270.9664 0026931 131.5478 342.1461 15.41030348  5893
STARLINK-30155          
1 57475U 23107U   25304.75796054  .00000716  00000+0  68063-4 0  9998
2 57475  43.0064 319.1214 0001103 270.1658  89.9058 15.02537746125728
