[{"OBJECT_NAME":"STARLINK-30140","OBJECT_ID":"2023-107B","EPOCH":"2025-10-31T11:24:44.985888","MEAN_MOTION":15.02527293,"ECCENTRICITY":0.0001067,"INCLINATION":43.0042,"RA_OF_ASC_NODE":321.3057,"ARG_OF_PERICENTER":281.0375,"MEAN_ANOMALY":79.0347,"EPHEMERIS_TYPE":0,"CLASSIFICATION_TYPE":"U","NORAD_CAT_ID":57458,"ELEMENT_SET_NO":999,"REV_AT_EPOCH":12567,"BSTAR":0.0002524,"MEAN_MOTION_DOT":3.207e-5,"MEAN_MOTION_DDOT":0},{"OBJECT_NAME":"STARLINK-30185","OBJECT_ID":"2023-107C","EPOCH":"2025-10-31T20:00:03.000384","MEAN_MOTION":15.11468164,"ECCENTRICITY":0.0001803,"INCLINATION":43.0006,"RA_OF_ASC_NODE":319.037,"ARG_OF_PERICENTER":255.4935,"MEAN_ANOMALY":20.3434,"EPHEMERIS_TYPE":0,"CLASSIFICATION_TYPE":"U","NORAD_CAT_ID":57459,"ELEMENT_SET_NO":999,"REV_AT_EPOCH":582,"BSTAR":0.0030244,"MEAN_MOTION_DOT":0.0005223,"MEAN_MOTION_DDOT":0},{"OBJECT_NAME":"STARLINK-30077","OBJECT_ID":"2023-107D","EPOCH":"2025-10-31T17:38:06.123840","MEAN_MOTION":15.0250495,"ECCENTRICITY":4.18e-5,"INCLINATION":42.9994,"RA_OF_ASC_NODE":319.8101,"ARG_OF_PERICENTER":299.5969,"MEAN_ANOMALY":60.4832,"EPHEMERIS_TYPE":0,"CLASSIFICATION_TYPE":"U","NORAD_CAT_ID":57460,"ELEMENT_SET_NO":999,"REV_AT_EPOCH":12571,"BSTAR":-1.9885e-5,"MEAN_MOTION_DOT":-4.72e-6,"MEAN_MOTION_DDOT":0},{"OBJECT_NAME":"STARLINK-30229","OBJECT_ID":"2023-107E","EPOCH":"2025-10-31T17:57:15.928128","MEAN_MOTION":15.0254244,"ECCENTRICITY":0.0001429,"INCLINATION":43.0062,"RA_OF_ASC_NODE":319.9059,"ARG_OF_PERICENTER":276.3239,"MEAN_ANOMALY":83.7441,"EPHEMERIS_TYPE":0,"CLASSIFICATION_TYPE":"U","NORAD_CAT_ID":57461,"ELEMENT_SET_NO":999,"REV_AT_EPOCH":12571,"BSTAR":-7.3304e-5,"MEAN_MOTION_DOT":-1.194e-5,"MEAN_MOTION_DDOT":0},{"OBJECT_NAME":"STARLINK-30088","OBJECT_ID":"2023-107F","EPOCH":"2025-10-31T17:33:15.926112","MEAN_MOTION":15.0254126,"ECCENTRICITY":0.0001385,"INCLINATION":43.0042,"RA_OF_ASC_NODE":319.7791,"ARG_OF_PERICENTER":276.8343,"MEAN_ANOMALY":83.2341,"EPHEMERIS_TYPE":0,"CLASSIFICATION_TYPE":"U","NORAD_CAT_ID":57462,"ELEMENT_SET_NO":999,"REV_AT_EPOCH":12571,"BSTAR":6.8059e-5,"MEAN_MOTION_DOT":7.16e-6,"MEAN_MOTION_DDOT":0},{"OBJECT_NAME":"STARLINK-30091","OBJECT_ID":"2023-107G","EPOCH":"2025-10-29T19:07:34.631040","MEAN_MOTION":15.02537031,"ECCENTRICITY":9.739e-5,"INCLINATION":43.0045,"RA_OF_ASC_NODE":330.2098,"ARG_OF_PERICENTER":279.1092,"MEAN_ANOMALY":80.964,"EPHEMERIS_TYPE":0,"CLASSIFICATION_TYPE":"U","NORAD_CAT_ID":57463,"ELEMENT_SET_NO":999,"REV_AT_EPOCH":12542,"BSTAR":6.3234707e-5,"MEAN_MOTION_DOT":6.51e-6,"MEAN_MOTION_DDOT":0},{"OBJECT_NAME":"STARLINK-30116","OBJECT_ID":"2023-107J","EPOCH":"2025-10-29T19:09:10.337184","MEAN_MOTION":15.02542928,"ECCENTRICITY":0.00011484,"INCLINATION":43.005,"RA_OF_ASC_NODE":330.2175,"ARG_OF_PERICENTER":266.7002,"MEAN_ANOMALY":93.3709,"EPHEMERIS_TYPE":0,"CLASSIFICATION_TYPE":"U","NORAD_CAT_ID":57465,"ELEMENT_SET_NO":999,"REV_AT_EPOCH":12542,"BSTAR":6.062428e-6,"MEAN_MOTION_DOT":-1.22e-6,"MEAN_MOTION_DDOT":0},{"OBJECT_NAME":"STARLINK-30092","OBJECT_ID":"2023-107L","EPOCH":"2025-10-29T18:57:58.883040","MEAN_MOTION":15.02541092,"ECCENTRICITY":0.00010588,"INCLINATION":43.0041,"RA_OF_ASC_NODE":330.1575,"ARG_OF_PERICENTER":261.8256,"MEAN_ANOMALY":98.2467,"EPHEMERIS_TYPE":0,"CLASSIFICATION_TYPE":"U","NORAD_CAT_ID":57467,"ELEMENT_SET_NO":999,"REV_AT_EPOCH":12542,"BSTAR":8.7796585e-5,"MEAN_MOTION_DOT":9.83e-6,"MEAN_MOTION_DDOT":0},{"OBJECT_NAME":"STARLINK-30039","OBJECT_ID":"2023-107M","EPOCH":"2025-10-29T12:30:16.684416","MEAN_MOTION":15.02537244,"ECCENTRICITY":0.00012865,"INCLINATION":43.0058,"RA_OF_ASC_NODE":331.5774,"ARG_OF_PERICENTER":267.5168,"MEAN_ANOMALY":92.5527,"EPHEMERIS_TYPE":0,"CLASSIFICATION_TYPE":"U","NORAD_CAT_ID":57468,"ELEMENT_SET_NO":999,"REV_AT_EPOCH":12538,"BSTAR":4.9249185e-5,"MEAN_MOTION_DOT":4.62e-6,"MEAN_MOTION_DDOT":0},{"OBJECT_NAME":"STARLINK-30171","OBJECT_ID":"2023-107N","EPOCH":"2025-10-31T18:35:26.171808","MEAN_MOTION":15.02538912,"ECCENTRICITY":0.0001365,"INCLINATION":43.0053,"RA_OF_ASC_NODE":319.2482,"ARG_OF_PERICENTER":270.5408,"MEAN_ANOMALY":89.5278,"EPHEMERIS_TYPE":0,"CLASSIFICATION_TYPE":"U","NORAD_CAT_ID":57469,"ELEMENT_SET_NO":999,"REV_AT_EPOCH":12572,"BSTAR":3.7536e-5,"MEAN_MOTION_DOT":3.03e-6,"MEAN_MOTION_DDOT":0},{"OBJECT_NAME":"STARLINK-30186","OBJECT_ID":"2023-107P","EPOCH":"2025-10-29T18:48:23.654304","MEAN_MOTION":15.02538535,"ECCENTRICITY":0.00012978,"INCLINATION":43.003,"RA_OF_ASC_NODE":330.1091,"ARG_OF_PERICENTER":277.4499,"MEAN_ANOMALY":82.6196,"EPHEMERIS_TYPE":0,"CLASSIFICATION_TYPE":"U","NORAD_CAT_ID":57470,"ELEMENT_SET_NO":999,"REV_AT_EPOCH":12542,"BSTAR":5.5326875e-5,"MEAN_MOTION_DOT":5.44e-6,"MEAN_MOTION_DDOT":0},{"OBJECT_NAME":"STARLINK-30190","OBJECT_ID":"2023-107Q","EPOCH":"2025-10-31T20:00:03.000384","MEAN_MOTION":15.67758232,"ECCENTRICITY":0.003337,"INCLINATION":42.9773,"RA_OF_ASC_NODE":263.8265,"ARG_OF_PERICENTER":151.2058,"MEAN_ANOMALY":273.2194,"EPHEMERIS_TYPE":0,"CLASSIFICATION_TYPE":"U","NORAD_CAT_ID":57471,"ELEMENT_SET_NO":999,"REV_AT_EPOCH":596,"BSTAR":0.0080407,"MEAN_MOTION_DOT":0.01034325,"MEAN_MOTION_DDOT":0},{"OBJECT_NAME":"STARLINK-30204","OBJECT_ID":"2023-107R","EPOCH":"2025-10-30T12:11:49.322400","MEAN_MOTION":15.02532275,"ECCENTRICITY":6.237e-5,"INCLINATION":43.0033,"RA_OF_ASC_NODE":326.0815,"ARG_OF_PERICENTER":278.8416,"MEAN_ANOMALY":81.2356,"EPHEMERIS_TYPE":0,"CLASSIFICATION_TYPE":"U","NORAD_CAT_ID":57472,"ELEMENT_SET_NO":999,"REV_AT_EPOCH":12553,"BSTAR":2.518735e-5,"MEAN_MOTION_DOT":1.37e-6,"MEAN_MOTION_DDOT":0},{"OBJECT_NAME":"STARLINK-30187","OBJECT_ID":"2023-107S","EPOCH":"2025-10-31T00:52:50.814336","MEAN_MOTION":15.02541507,"ECCENTRICITY":0.00011475,"INCLINATION":43.0046,"RA_OF_ASC_NODE":323.1589,"ARG_OF_PERICENTER":268.0972,"MEAN_ANOMALY":91.9739,"EPHEMERIS_TYPE":0,"CLASSIFICATION_TYPE":"U","NORAD_CAT_ID":57473,"ELEMENT_SET_NO":999,"REV_AT_EPOCH":12561,"BSTAR":0.00010589105,"MEAN_MOTION_DOT":1.227e-5,"MEAN_MOTION_DDOT":0},{"OBJECT_NAME":"STARLINK-30110","OBJECT_ID":"2023-107T","EPOCH":"2025-10-31T20:00:03.000384","MEAN_MOTION":15.41030348,"ECCENTRICITY":0.0026931,"INCLINATION":42.994,"RA_OF_ASC_NODE":270.9664,"ARG_OF_PERICENTER":131.5478,"MEAN_ANOMALY":342.1461,"EPHEMERIS_TYPE":0,"CLASSIFICATION_TYPE":"U","NORAD_CAT_ID":57474,"ELEMENT_SET_NO":999,"REV_AT_EPOCH":589,"BSTAR":0.0060218,"MEAN_MOTION_DOT":0.00266083,"MEAN_MOTION_DDOT":0},{"OBJECT_NAME":"STARLINK-30155","OBJECT_ID":"2023-107U","EPOCH":"2025-10-31T18:11:27.790656","MEAN_MOTION":15.02537746,"ECCENTRICITY":0.0001103,"INCLINATION":43.0064,"RA_OF_ASC_NODE":319.1214,"ARG_OF_PERICENTER":270.1658,"MEAN_ANOMALY":89.9058,"EPHEMERIS_TYPE":0,"CLASSIFICATION_TYPE":"U","NORAD_CAT_ID":57475,"ELEMENT_SET_NO":999,"REV_AT_EPOCH":12572,"BSTAR":6.8063e-5,"MEAN_MOTION_DOT":7.16e-6,"MEAN_MOTION_DDOT":0}]
